{ "type": "FeatureCollection", "features": [ { "type": "Feature", "properties": { "tourism": "hotel", "name": "Mirror", "name:en": null, "website": "http://www.hotelmirror.mk/", "addr:street": null, "int_name": null, "phone": "+389 77 410 444", "internet_access": null, "addr:housenumber": null, "email": null, "addr:postcode": null, "addr:city": null, "internet_access:fee": null, "opening_hours": null, "stars": null, "name:mk": null, "operator": null, "addr:country": null, "description": null, "fax": null, "alt_name": null, "amenity": null, "brand": null, "rooms": null, "smoking": null }, "geometry": { "type": "Point", "coordinates": [ 21.6199181, 41.9390026 ] } }, { "type": "Feature", "properties": { "tourism": "hotel", "name": "Vila ENHALON", "name:en": null, "website": "http://www.tcmc.org.mk/Enhalon.html", "addr:street": "Ezerski Lozja", "int_name": null, "phone": "070243534", "internet_access": "yes", "addr:housenumber": "86", "email": "albert_hani@yahoo.com", "addr:postcode": "6330", "addr:city": "Struga", "internet_access:fee": "yes", "opening_hours": null, "stars": null, "name:mk": null, "operator": null, "addr:country": "MK", "description": "Animal friendly, Children's playground, Private Beach, Refrigerator, TV, Toilets in rooms", "fax": "+389 46 780233", "alt_name": null, "amenity": null, "brand": null, "rooms": null, "smoking": null }, "geometry": { "type": "Point", "coordinates": [ 20.710435, 41.169856 ] } }, { "type": "Feature", "properties": { "tourism": "hotel", "name": "Granit", "name:en": null, "website": "http://www.hotelgranit.com.mk", "addr:street": null, "int_name": null, "phone": "+389 46207100", "internet_access": "wlan", "addr:housenumber": null, "email": "reservation@hotelgranit.com.mk", "addr:postcode": null, "addr:city": null, "internet_access:fee": "no", "opening_hours": null, "stars": "4", "name:mk": null, "operator": null, "addr:country": null, "description": null, "fax": "+389 46207141", "alt_name": null, "amenity": "restaurant", "brand": null, "rooms": null, "smoking": null }, "geometry": { "type": "Point", "coordinates": [ 20.8009009, 41.0666434 ] } }, { "type": "Feature", "properties": { "tourism": "hotel", "name": "Prestol", "name:en": null, "website": "http://www.hotelprestol.com", "addr:street": null, "int_name": null, "phone": "+389 46277858", "internet_access": "wlan", "addr:housenumber": null, "email": null, "addr:postcode": null, "addr:city": null, "internet_access:fee": "no", "opening_hours": "07:00-21:00", "stars": "3", "name:mk": null, "operator": null, "addr:country": null, "description": null, "fax": null, "alt_name": null, "amenity": "restaurant", "brand": null, "rooms": null, "smoking": null }, "geometry": { "type": "Point", "coordinates": [ 20.8016787, 41.0678423 ] } }, { "type": "Feature", "properties": { "tourism": "hotel", "name": "Hotel & Spa Tino Sveti Stefan", "name:en": null, "website": "https://tino-sveti-stefan-mk.book.direct/nl-nl", "addr:street": null, "int_name": null, "phone": "+38946209340", "internet_access": null, "addr:housenumber": null, "email": null, "addr:postcode": null, "addr:city": null, "internet_access:fee": null, "opening_hours": null, "stars": null, "name:mk": null, "operator": "Hotel Tino", "addr:country": null, "description": null, "fax": null, "alt_name": null, "amenity": null, "brand": null, "rooms": null, "smoking": null }, "geometry": { "type": "Point", "coordinates": [ 20.8035432, 41.0760694 ] } }, { "type": "Feature", "properties": { "tourism": "hotel", "name": "Салида", "name:en": "Salida", "website": "https://www.hotelsalida.com.mk/", "addr:street": null, "int_name": "Salida", "phone": "+389 (0) 48 400 333", "internet_access": null, "addr:housenumber": null, "email": "contact@hotelsalida.com.mk", "addr:postcode": null, "addr:city": null, "internet_access:fee": null, "opening_hours": null, "stars": null, "name:mk": null, "operator": null, "addr:country": null, "description": null, "fax": null, "alt_name": null, "amenity": null, "brand": null, "rooms": null, "smoking": null }, "geometry": { "type": "Point", "coordinates": [ 21.5550545, 41.3325976 ] } }, { "type": "Feature", "properties": { "tourism": "hotel", "name": "Holiday Han", "name:en": null, "website": "http://holidayhan.com/", "addr:street": "Маршал Тито", "int_name": null, "phone": "+389 34 611 593", "internet_access": null, "addr:housenumber": "110", "email": "holidayhan@yahoo.com", "addr:postcode": null, "addr:city": "Гевгелија", "internet_access:fee": null, "opening_hours": null, "stars": null, "name:mk": null, "operator": null, "addr:country": null, "description": null, "fax": null, "alt_name": null, "amenity": null, "brand": null, "rooms": null, "smoking": null }, "geometry": { "type": "Point", "coordinates": [ 22.5048372, 41.1405889 ] } }, { "type": "Feature", "properties": { "tourism": "hotel", "name": "Hotel Orange Inn", "name:en": null, "website": "https://www.booking.com/hotel/mk/orange-inn.en-gb.html?sid=1ddd35f0ef4f22510d37f152a78ce4a3", "addr:street": null, "int_name": null, "phone": "0038922772254", "internet_access": null, "addr:housenumber": null, "email": "info@orangeinn.com.mk", "addr:postcode": null, "addr:city": null, "internet_access:fee": null, "opening_hours": null, "stars": null, "name:mk": null, "operator": null, "addr:country": null, "description": null, "fax": null, "alt_name": null, "amenity": null, "brand": null, "rooms": null, "smoking": null }, "geometry": { "type": "Point", "coordinates": [ 21.440152, 41.980192 ] } }, { "type": "Feature", "properties": { "tourism": "hotel", "name": "Hotel De KOKA", "name:en": null, "website": "www.hoteldekoka.mk", "addr:street": "Gotse Deltchev", "int_name": null, "phone": "+38923112200", "internet_access": "wlan", "addr:housenumber": "5", "email": "info@hoteldekoka.mk", "addr:postcode": "1000", "addr:city": "skopje", "internet_access:fee": "yes", "opening_hours": null, "stars": "3", "name:mk": null, "operator": "Hotel De KOKA", "addr:country": "MK", "description": null, "fax": null, "alt_name": null, "amenity": null, "brand": null, "rooms": "36", "smoking": "separated" }, "geometry": { "type": "Point", "coordinates": [ 21.4380987, 41.9994486 ] } }, { "type": "Feature", "properties": { "tourism": "hotel", "name": "Hotel Elita", "name:en": null, "website": "https://m.facebook.com/profile.php?id=295222203829948", "addr:street": "Ul. Mladen Grujoski 14", "int_name": null, "phone": "042215365", "internet_access": "wlan", "addr:housenumber": null, "email": null, "addr:postcode": null, "addr:city": null, "internet_access:fee": null, "opening_hours": "24/7", "stars": null, "name:mk": null, "operator": null, "addr:country": null, "description": null, "fax": null, "alt_name": null, "amenity": null, "brand": null, "rooms": null, "smoking": null }, "geometry": { "type": "Point", "coordinates": [ 20.911561, 41.7944152 ] } }, { "type": "Feature", "properties": { "tourism": "hotel", "name": "Apartman", "name:en": null, "website": "https://www.pazar3.mk/mk/Listing/AdDetail/Index/1148323-LUKSUZNO-OPREMENI-STANOVI-APARTMANI", "addr:street": "Иво Лола Рибар", "int_name": null, "phone": "078-277-048", "internet_access": null, "addr:housenumber": null, "email": null, "addr:postcode": null, "addr:city": "Куманово", "internet_access:fee": null, "opening_hours": null, "stars": null, "name:mk": null, "operator": null, "addr:country": null, "description": null, "fax": null, "alt_name": null, "amenity": null, "brand": null, "rooms": null, "smoking": null }, "geometry": { "type": "Point", "coordinates": [ 21.7224017, 42.135611 ] } }, { "type": "Feature", "properties": { "tourism": "hotel", "name": "Apartments by the Lake, Ohrid", "name:en": "Bandzo's Apartments", "website": "https://sites.google.com/site/arohrid", "addr:street": "Ilindenska", "int_name": null, "phone": "+38970550590", "internet_access": "wlan", "addr:housenumber": "4", "email": "ar.ohrid@gmail.com", "addr:postcode": "6000", "addr:city": "Ohrid", "internet_access:fee": "no", "opening_hours": "24/7", "stars": "2", "name:mk": null, "operator": "Georgi Piruze", "addr:country": null, "description": "Dear travelers, We invite you to spend your weekend/holiday in Makedonija, Europe. Enjoying a central location in the old town of Ohrid, directly on the lake shore, the house and a garden-terrace with a private beach, excellent conditions for families. ", "fax": null, "alt_name": null, "amenity": null, "brand": "Bandzo's", "rooms": "4", "smoking": "outside" }, "geometry": { "type": "Point", "coordinates": [ 20.7942088, 41.1114429 ] } }, { "type": "Feature", "properties": { "tourism": "hotel", "name": "Хотел Туто", "name:en": null, "website": "www.tutto.com.mk", "addr:street": null, "int_name": "Hotel Tutto", "phone": "042 / 470 999", "internet_access": "yes", "addr:housenumber": null, "email": "info@tutto.com.mk", "addr:postcode": null, "addr:city": null, "internet_access:fee": null, "opening_hours": null, "stars": null, "name:mk": null, "operator": null, "addr:country": null, "description": null, "fax": "042 / 470 999", "alt_name": null, "amenity": null, "brand": null, "rooms": null, "smoking": null }, "geometry": { "type": "Point", "coordinates": [ 20.6246531, 41.5898039 ] } }, { "type": "Feature", "properties": { "tourism": "hotel", "name": "ОК Хотел", "name:en": "OK Hotel", "website": "http://www.okhotel.mk/", "addr:street": "Лондонска", "int_name": null, "phone": "+389 2 3067067", "internet_access": "wlan", "addr:housenumber": "19", "email": "contact@okhotel.mk", "addr:postcode": "1000", "addr:city": "Cкoпje", "internet_access:fee": "no", "opening_hours": null, "stars": null, "name:mk": null, "operator": null, "addr:country": "MK", "description": null, "fax": null, "alt_name": null, "amenity": null, "brand": null, "rooms": null, "smoking": null }, "geometry": { "type": "Point", "coordinates": [ 21.3924091, 41.9984102 ] } }, { "type": "Feature", "properties": { "tourism": "hotel", "name": "Lake View", "name:en": null, "website": "https://www.lakeviewotesevo.com/", "addr:street": "Otesevo, Resen", "int_name": null, "phone": "047551195", "internet_access": null, "addr:housenumber": null, "email": "contact@lakeviewotesevo.com", "addr:postcode": null, "addr:city": null, "internet_access:fee": null, "opening_hours": null, "stars": null, "name:mk": null, "operator": null, "addr:country": null, "description": null, "fax": null, "alt_name": null, "amenity": null, "brand": null, "rooms": null, "smoking": null }, "geometry": { "type": "Point", "coordinates": [ 20.9208605, 40.9856694 ] } } ] }
